CCSDS_OMM_VERS = 2.0
CREATION_DATE  = 
ORIGINATOR     = 

OBJECT_NAME    = ORBVIEW 2 (SEASTAR)
OBJECT_ID      = 1997-037A
CENTER_NAME    = EARTH
REF_FRAME      = TEME
TIME_SYSTEM    = UTC
MEAN_ELEMENT_THEORY = SGP/SGP4

EPOCH          = 2025-11-26T09:28:40.466784
MEAN_MOTION    = 14.35398541
ECCENTRICITY   = .00024543
INCLINATION    = 98.8452
RA_OF_ASC_NODE = 127.0588
ARG_OF_PERICENTER = 29.2924
MEAN_ANOMALY   = 330.8398

EPHEMERIS_TYPE = 0
CLASSIFICATION_TYPE = U
NORAD_CAT_ID   = 24883
ELEMENT_SET_NO = 999
REV_AT_EPOCH   = 49365
BSTAR          = .14372765E-3
MEAN_MOTION_DOT = .366E-5
MEAN_MOTION_DDOT = 0

CCSDS_OMM_VERS = 2.0
CREATION_DATE  = 
ORIGINATOR     = 

OBJECT_NAME    = SL-16 R/B
OBJECT_ID      = 1998-043G
CENTER_NAME    = EARTH
REF_FRAME      = TEME
TIME_SYSTEM    = UTC
MEAN_ELEMENT_THEORY = SGP/SGP4

EPOCH          = 2025-11-26T09:06:57.814848
MEAN_MOTION    = 14.26019561
ECCENTRICITY   = .0009127
INCLINATION    = 98.8100
RA_OF_ASC_NODE = 278.1086
ARG_OF_PERICENTER = 319.4302
MEAN_ANOMALY   = 40.6196

EPHEMERIS_TYPE = 0
CLASSIFICATION_TYPE = U
NORAD_CAT_ID   = 25400
ELEMENT_SET_NO = 999
REV_AT_EPOCH   = 42426
BSTAR          = .66863E-4
MEAN_MOTION_DOT = .114E-5
MEAN_MOTION_DDOT = 0

CCSDS_OMM_VERS = 2.0
CREATION_DATE  = 
ORIGINATOR     = 

OBJECT_NAME    = SL-16 R/B
OBJECT_ID      = 1998-045B
CENTER_NAME    = EARTH
REF_FRAME      = TEME
TIME_SYSTEM    = UTC
MEAN_ELEMENT_THEORY = SGP/SGP4

EPOCH          = 2025-11-26T10:45:31.258080
MEAN_MOTION    = 14.16171196
ECCENTRICITY   = .0007931
INCLINATION    = 71.0126
RA_OF_ASC_NODE = 38.6872
ARG_OF_PERICENTER = 199.8411
MEAN_ANOMALY   = 160.2405

EPHEMERIS_TYPE = 0
CLASSIFICATION_TYPE = U
NORAD_CAT_ID   = 25407
ELEMENT_SET_NO = 999
REV_AT_EPOCH   = 41248
BSTAR          = .17778E-3
MEAN_MOTION_DOT = .304E-5
MEAN_MOTION_DDOT = 0

CCSDS_OMM_VERS = 2.0
CREATION_DATE  = 
ORIGINATOR     = 

OBJECT_NAME    = ISS (ZARYA)
OBJECT_ID      = 1998-067A
CENTER_NAME    = EARTH
REF_FRAME      = TEME
TIME_SYSTEM    = UTC
MEAN_ELEMENT_THEORY = SGP/SGP4

EPOCH          = 2025-11-26T09:58:25.455360
MEAN_MOTION    = 15.49096240
ECCENTRICITY   = .0003817
INCLINATION    = 51.6311
RA_OF_ASC_NODE = 223.2842
ARG_OF_PERICENTER = 170.1107
MEAN_ANOMALY   = 189.9957

EPHEMERIS_TYPE = 0
CLASSIFICATION_TYPE = U
NORAD_CAT_ID   = 25544
ELEMENT_SET_NO = 999
REV_AT_EPOCH   = 54032
BSTAR          = .20595E-3
MEAN_MOTION_DOT = .10951E-3
MEAN_MOTION_DDOT = 0

CCSDS_OMM_VERS = 2.0
CREATION_DATE  = 
ORIGINATOR     = 

OBJECT_NAME    = CZ-4B R/B
OBJECT_ID      = 1999-025C
CENTER_NAME    = EARTH
REF_FRAME      = TEME
TIME_SYSTEM    = UTC
MEAN_ELEMENT_THEORY = SGP/SGP4

EPOCH          = 2025-11-26T02:21:11.299680
MEAN_MOTION    = 14.18237499
ECCENTRICITY   = .00360313
INCLINATION    = 98.6791
RA_OF_ASC_NODE = 11.7484
ARG_OF_PERICENTER = 283.1799
MEAN_ANOMALY   = 130.6606

EPHEMERIS_TYPE = 0
CLASSIFICATION_TYPE = U
NORAD_CAT_ID   = 25732
ELEMENT_SET_NO = 999
REV_AT_EPOCH   = 37348
BSTAR          = .72006048E-4
MEAN_MOTION_DOT = .106E-5
MEAN_MOTION_DDOT = 0

CCSDS_OMM_VERS = 2.0
CREATION_DATE  = 
ORIGINATOR     = 

OBJECT_NAME    = OKEAN-O
OBJECT_ID      = 1999-039A
CENTER_NAME    = EARTH
REF_FRAME      = TEME
TIME_SYSTEM    = UTC
MEAN_ELEMENT_THEORY = SGP/SGP4

EPOCH          = 2025-11-26T10:18:56.092896
MEAN_MOTION    = 14.80119408
ECCENTRICITY   = .0001021
INCLINATION    = 97.9625
RA_OF_ASC_NODE = 26.2711
ARG_OF_PERICENTER = 70.7989
MEAN_ANOMALY   = 289.3333

EPHEMERIS_TYPE = 0
CLASSIFICATION_TYPE = U
NORAD_CAT_ID   = 25860
ELEMENT_SET_NO = 999
REV_AT_EPOCH   = 41911
BSTAR          = .12631E-3
MEAN_MOTION_DOT = .906E-5
MEAN_MOTION_DDOT = 0

CCSDS_OMM_VERS = 2.0
CREATION_DATE  = 
ORIGINATOR     = 

OBJECT_NAME    = SL-16 R/B
OBJECT_ID      = 1999-039B
CENTER_NAME    = EARTH
REF_FRAME      = TEME
TIME_SYSTEM    = UTC
MEAN_ELEMENT_THEORY = SGP/SGP4

EPOCH          = 2025-11-26T10:34:27.865056
MEAN_MOTION    = 14.81550986
ECCENTRICITY   = .0013796
INCLINATION    = 98.0148
RA_OF_ASC_NODE = 24.5891
ARG_OF_PERICENTER = 229.0178
MEAN_ANOMALY   = 130.9841

EPHEMERIS_TYPE = 0
CLASSIFICATION_TYPE = U
NORAD_CAT_ID   = 25861
ELEMENT_SET_NO = 999
REV_AT_EPOCH   = 42157
BSTAR          = .10477E-3
MEAN_MOTION_DOT = .769E-5
MEAN_MOTION_DDOT = 0

CCSDS_OMM_VERS = 2.0
CREATION_DATE  = 
ORIGINATOR     = 

OBJECT_NAME    = DELTA 2 R/B
OBJECT_ID      = 1999-041E
CENTER_NAME    = EARTH
REF_FRAME      = TEME
TIME_SYSTEM    = UTC
MEAN_ELEMENT_THEORY = SGP/SGP4

EPOCH          = 2025-11-26T11:56:06.128160
MEAN_MOTION    = 14.11339225
ECCENTRICITY   = .0504905
INCLINATION    = 51.7624
RA_OF_ASC_NODE = 353.2815
ARG_OF_PERICENTER = 43.9032
MEAN_ANOMALY   = 320.0888

EPHEMERIS_TYPE = 0
CLASSIFICATION_TYPE = U
NORAD_CAT_ID   = 25876
ELEMENT_SET_NO = 999
REV_AT_EPOCH   = 34845
BSTAR          = .1992E-3
MEAN_MOTION_DOT = .99E-5
MEAN_MOTION_DDOT = 0

CCSDS_OMM_VERS = 2.0
CREATION_DATE  = 
ORIGINATOR     = 

OBJECT_NAME    = HELIOS 1B
OBJECT_ID      = 1999-064A
CENTER_NAME    = EARTH
REF_FRAME      = TEME
TIME_SYSTEM    = UTC
MEAN_ELEMENT_THEORY = SGP/SGP4

EPOCH          = 2025-11-26T10:54:22.753728
MEAN_MOTION    = 14.87180127
ECCENTRICITY   = .0002381
INCLINATION    = 98.1749
RA_OF_ASC_NODE = 224.6380
ARG_OF_PERICENTER = 64.5543
MEAN_ANOMALY   = 295.5918

EPHEMERIS_TYPE = 0
CLASSIFICATION_TYPE = U
NORAD_CAT_ID   = 25977
ELEMENT_SET_NO = 999
REV_AT_EPOCH   = 66991
BSTAR          = .29063E-3
MEAN_MOTION_DOT = .2556E-4
MEAN_MOTION_DDOT = 0

CCSDS_OMM_VERS = 2.0
CREATION_DATE  = 
ORIGINATOR     = 

OBJECT_NAME    = TERRA
OBJECT_ID      = 1999-068A
CENTER_NAME    = EARTH
REF_FRAME      = TEME
TIME_SYSTEM    = UTC
MEAN_ELEMENT_THEORY = SGP/SGP4

EPOCH          = 2025-11-26T10:10:13.571616
MEAN_MOTION    = 14.60924511
ECCENTRICITY   = .00031773
INCLINATION    = 97.9771
RA_OF_ASC_NODE = 22.7047
ARG_OF_PERICENTER = 131.0196
MEAN_ANOMALY   = 239.7148

EPHEMERIS_TYPE = 0
CLASSIFICATION_TYPE = U
NORAD_CAT_ID   = 25994
ELEMENT_SET_NO = 999
REV_AT_EPOCH   = 38000
BSTAR          = .1372543E-3
MEAN_MOTION_DOT = .627E-5
MEAN_MOTION_DDOT = 0

CCSDS_OMM_VERS = 2.0
CREATION_DATE  = 
ORIGINATOR     = 

OBJECT_NAME    = SL-16 R/B
OBJECT_ID      = 2000-006B
CENTER_NAME    = EARTH
REF_FRAME      = TEME
TIME_SYSTEM    = UTC
MEAN_ELEMENT_THEORY = SGP/SGP4

EPOCH          = 2025-11-26T08:47:25.935360
MEAN_MOTION    = 14.15802565
ECCENTRICITY   = .00175352
INCLINATION    = 71.0020
RA_OF_ASC_NODE = 315.0854
ARG_OF_PERICENTER = 331.6405
MEAN_ANOMALY   = 28.3762

EPHEMERIS_TYPE = 0
CLASSIFICATION_TYPE = U
NORAD_CAT_ID   = 26070
ELEMENT_SET_NO = 999
REV_AT_EPOCH   = 33393
BSTAR          = .14803157E-3
MEAN_MOTION_DOT = .244E-5
MEAN_MOTION_DDOT = 0

CCSDS_OMM_VERS = 2.0
CREATION_DATE  = 
ORIGINATOR     = 

OBJECT_NAME    = TITAN 4B R/B
OBJECT_ID      = 2000-047B
CENTER_NAME    = EARTH
REF_FRAME      = TEME
TIME_SYSTEM    = UTC
MEAN_ELEMENT_THEORY = SGP/SGP4

EPOCH          = 2025-11-26T10:25:03.857952
MEAN_MOTION    = 15.08604814
ECCENTRICITY   = .0040245
INCLINATION    = 67.9903
RA_OF_ASC_NODE = 330.6442
ARG_OF_PERICENTER = 163.8927
MEAN_ANOMALY   = 196.3512

EPHEMERIS_TYPE = 0
CLASSIFICATION_TYPE = U
NORAD_CAT_ID   = 26474
ELEMENT_SET_NO = 999
REV_AT_EPOCH   = 37733
BSTAR          = .26459E-3
MEAN_MOTION_DOT = .4091E-4
MEAN_MOTION_DDOT = 0

