ORBVIEW 2 (SEASTAR)     
1 24883U 97037A   25330.39491281  .00000366  00000+0  14373-3 0  9996
2 24883  98.8452 127.0588 0002454  29.2924 330.8398 14.35398541493651
SL-16 R/B               
1 25400U 98043G   25330.37983582  .00000114  00000+0  66863-4 0  9991
2 25400  98.8100 278.1086 0009127 319.4302  40.6196 14.26019561424261
SL-16 R/B               
1 25407U 98045B   25330.44827845  .00000304  00000+0  17778-3 0  9998
2 25407  71.0126  38.6872 0007931 199.8411 160.2405 14.16171196412488
ISS (ZARYA)             
1 25544U 98067A   25330.41557240  .00010951  00000+0  20595-3 0  9990
2 25544  51.6311 223.2842 0003817 170.1107 189.9957 15.49096240540320
CZ-4B R/B               
1 25732U 99025C   25330.09804745  .00000106  00000+0  72006-4 0  9999
2 25732  98.6791  11.7484 0036031 283.1799 130.6606 14.18237499373483
OKEAN-O                 
1 25860U 99039A   25330.42981589  .00000906  00000+0  12631-3 0  9990
2 25860  97.9625  26.2711 0001021  70.7989 289.3333 14.80119408419117
SL-16 R/B               
1 25861U 99039B   25330.44060029  .00000769  00000+0  10477-3 0  9993
2 25861  98.0148  24.5891 0013796 229.0178 130.9841 14.81550986421570
DELTA 2 R/B             
1 25876U 99041E   25330.49729315  .00000990  00000+0  19920-3 0  9995
2 25876  51.7624 353.2815 0504905  43.9032 320.0888 14.11339225348450
HELIOS 1B               
1 25977U 99064A   25330.45443002  .00002556  00000+0  29063-3 0  9993
2 25977  98.1749 224.6380 0002381  64.5543 295.5918 14.87180127669915
TERRA                   
1 25994U 99068A   25330.42376819  .00000627  00000+0  13725-3 0  9999
2 25994  97.9771  22.7047 0003177 131.0196 239.7148 14.60924511380000
SL-16 R/B               
1 26070U 00006B   25330.36627240  .00000244  00000+0  14803-3 0  9992
2 26070  71.0020 315.0854 0017535 331.6405  28.3762 14.15802565333932
TITAN 4B R/B            
1 26474U 00047B   25330.43407243  .00004091  00000+0  26459-3 0  9996
2 26474  67.9903 330.6442 0040245 163.8927 196.3512 15.08604814377339
